NUSAT-48 (HENRIETTA LE*)
1 60498U 24149AG  26068.80506098  .00012988  00000+0  45212-3 0  9999
2 60498  97.3923 150.8264 0002754 263.3026  96.7901 15.29812597 86946
STARLINK-35037          
1 65483U 25195AB  26068.81297076  .00019275  00000+0  66154-3 0  9998
2 65483  53.1574 257.5024 0001190  91.5872 268.5265 15.30184934 29992
