[{"OBJECT_NAME":"NUSAT-48 (HENRIETTA LEAVITT)","OBJECT_ID":"2024-149AG","EPOCH":"2026-03-09T19:19:17.269536","MEAN_MOTION":15.29812597,"ECCENTRICITY":0.00027538,"INCLINATION":97.3923,"RA_OF_ASC_NODE":150.8264,"ARG_OF_PERICENTER":263.3026,"MEAN_ANOMALY":96.7901,"EPHEMERIS_TYPE":0,"CLASSIFICATION_TYPE":"U","NORAD_CAT_ID":60498,"ELEMENT_SET_NO":999,"REV_AT_EPOCH":8694,"BSTAR":0.00045211745,"MEAN_MOTION_DOT":0.00012988,"MEAN_MOTION_DDOT":0},{"OBJECT_NAME":"STARLINK-35037","OBJECT_ID":"2025-195AB","EPOCH":"2026-03-09T19:30:40.673664","MEAN_MOTION":15.30184934,"ECCENTRICITY":0.00011903,"INCLINATION":53.1574,"RA_OF_ASC_NODE":257.5024,"ARG_OF_PERICENTER":91.5872,"MEAN_ANOMALY":268.5265,"EPHEMERIS_TYPE":0,"CLASSIFICATION_TYPE":"U","NORAD_CAT_ID":65483,"ELEMENT_SET_NO":999,"REV_AT_EPOCH":2999,"BSTAR":0.00066153901,"MEAN_MOTION_DOT":0.00019275,"MEAN_MOTION_DDOT":0}]
